#dP2025  1 19  0  0  0.00000000      96 __u+U IGS20 EXT  IAC
## 2350      0.00000000   900.00000000 60694 0.0000000000000
+   53   G01G02G03G04G05G06G07G08G09G10G11G12G13G14G15G16G17
+        G18G19G20G21G22G23G24G25G26G27G28G29G30G31G32R01R02
+        R03R04R05R07R08R09R11R12R14R15R16R17R18R19R20R21R22
+        R24R26  0  0  0  0  0  0  0  0  0  0  0  0  0  0  0
+          0  0  0  0  0  0  0  0  0  0  0  0  0  0  0  0  0
++         8  8  7  9  7  8  8  8  8  7  7  8  7  7  7  7  7
++         8  8  7  7  7  7  7  7  7  8  7  8  8  8  7  9  7
++         8  9  8  8  8  9  7  9  7  9  9  8  9  9  8  8  8
++         9  7  0  0  0  0  0  0  0  0  0  0  0  0  0  0  0
++         0  0  0  0  0  0  0  0  0  0  0  0  0  0  0  0  0
%c M  cc GPS ccc cccc cccc cccc cccc ccccc ccccc ccccc ccccc
%c cc cc ccc ccc cccc cccc cccc cccc ccccc ccccc ccccc ccccc
%f  0.0000000  0.000000000  0.00000000000  0.000000000000000
%f  0.0000000  0.000000000  0.00000000000  0.000000000000000
%i    0    0    0    0      0      0      0      0         0
%i    0    0    0    0      0      0      0      0         0
/* IAC                                ULTRA-RAPID PREDICTION
/* S/V CLOCKS ARE ALIGNED TO GNSS TIME                      
/* G:C1WC2W R:C1PC2P E:C1XC5X C:C2IC6I J:C1CC2S             
/* PCV:IGS20_2317 OL/AL:FES2004  NONE     YN ORB:CoN CLK:CoN
*  2025 01 19 12  0  0.00000000
PG01 -19517.766984 -11691.901883  13718.243848     60.637023
PG02 -21621.162463 -11415.876015  11316.592990   -264.122538
PG03 -14877.861305  -1473.111524  21775.517571    648.948028
PG04 -25966.282428  -1090.409994   5880.291981    514.317562
PG05   8407.646882  16256.621507 -19398.305796   -199.475647
PG06   1363.230206  20244.516455  17143.369332   -129.244830
PG07 -16197.682844   3056.609216 -20376.214857    -13.413884
PG08 -20485.357804  -7452.907857 -15616.347305    463.984601
PG09 -25561.854792   6723.484575  -3068.619964    534.714426
PG10  10078.105442 -24360.920718   -592.607535   -283.290226
PG11  10870.781383  23236.509601   7034.697684   -751.230560
PG12  14177.985121   5257.543091  21544.717857   -565.351300
PG13  12202.976050  13363.135252 -19758.150640    693.956390
PG14 -12846.276183  22675.258876  -4358.333034    582.871447
PG15  21284.127244   5217.161758 -15628.154808    253.450975
PG16  -2959.704105 -20469.939751 -16761.703488    -74.064497
PG17 -16455.547001  13121.480036  16731.701889    467.095528
PG18  14348.354087  -5477.355395 -21662.816500   -657.279514
PG19  -5618.195071  14873.375246  21063.334197    588.026112
PG20   2119.316427  24687.542116  -9650.345203    366.952807
PG21 -20954.592140 -16656.008732   4997.605789    101.347811
PG22  -9132.205490  24832.761054   4168.504643    -93.078193
PG23  15737.863722 -15930.364441 -14053.644276    406.894430
PG24  21517.580727  13424.111248   8068.119427   -462.272273
PG25  16969.388222  -9082.206697  17827.107912    496.499374
PG26   2283.583224 -25442.603831  -6678.997981    -54.562751
PG27  -9616.039858 -13484.899423 -21159.257977    -32.841001
PG28   -110.054783 -19520.523365  17998.209926   -539.238555
PG29  26084.024414  -4247.121670  -3306.143204   -545.725282
PG30  -7517.118188  14802.401896 -20529.524773   -235.710865
PG31  -7403.846284 -22652.831072  11087.106830   -217.529178
PG32  10948.566031 -15145.815690  19026.770131   -538.709354
PR01 -22610.768529  11033.330483   4178.390525    111.787911
PR02 -16072.840988  15251.285787 -12653.801574    -38.326793
PR03    552.678180  11724.767507 -22604.231335    115.207796
PR04  15935.140737   1804.877735 -19797.193589    273.211896
PR05  23016.223548  -8880.265822  -6418.656253    143.993378
PR07   -998.106052 -11551.233294  22758.405115     99.170063
PR08 -16231.655762  -1575.978404  19692.092234     -6.367007
PR09   5177.372940 -22413.820503  11126.718361    232.997166
PR11  -8791.518060 -14827.997513 -18804.110560     -1.930066
PR12 -10754.202413   6515.240998 -22179.672097     49.789961
PR14   2705.889480  24671.934740   5848.446700     27.615363
PR15   9331.784433  13129.880218  19787.102309     72.028645
PR16  10616.073864  -6398.399143  22300.698032     32.573646
PR17  12428.708984  15996.250535  15538.729247    158.866306
PR18  21468.884033  13720.491298    306.340204    182.690738
PR19  20484.485311   6408.392600 -13778.817533   -306.085474
PR20   5538.021204  -8836.922091 -23265.588608   -124.751454
PR21 -11198.145323 -15879.420089 -16508.078379   -169.482513
PR22 -21547.473258 -13626.678904   1074.130835    -56.703076
PR24  -4915.601292   9791.899118  23056.364062    -88.823015
PR26 -14720.665182  -2824.047408  20656.402380   -131.652921
*  2025 01 19 12 15  0.00000000
PG01 -20191.107491 -12977.171160  11390.256705     60.663533
PG02 -22265.380242 -12297.589941   8786.044136   -264.114212
PG03 -14035.093936  -3866.365146  22047.907560    648.954465
PG04 -25185.522319  -1421.443592   8578.636373    514.322808
PG05   7692.858574  18232.545522 -17858.029040   -199.476651
PG06    -18.173765  18733.638149  18848.914341   -129.268650
PG07 -17672.522734   1190.695903 -19386.443878    -13.413750
PG08 -18710.547359  -8014.279566 -17432.669152    463.991416
PG09 -25787.737570   6516.898985   -224.774434    534.727735
PG10  10182.556445 -24044.753489  -3507.886813   -283.304500
PG11  10116.025711  22620.899180   9679.110059   -751.229445
PG12  13170.234415   7573.195002  21499.287152   -565.353274
PG13   9938.934887  13523.213053 -20877.779252    693.957468
PG14 -12902.014676  21941.729451  -7090.840943    582.877843
PG15  19645.438498   5998.479258 -17437.078179    253.454997
PG16  -2052.502790 -21993.509934 -14769.457393    -74.055997
PG17 -18186.509092  13189.077425  14735.583949    467.079604
PG18  15867.345574  -3566.005201 -21013.203255   -657.278153
PG19  -8014.263537  14968.249934  20169.534006    588.030177
PG20   1730.234435  25599.824349  -7029.052776    366.952550
PG21 -21099.595189 -17024.737923   2245.393202    101.348430
PG22  -9456.054745  24983.091103   1356.503656    -93.079923
PG23  15346.970170 -14226.715547 -16169.345076    406.901153
PG24  21910.388252  14202.915756   5432.465850   -462.268510
PG25  16432.832813  -6942.027184  19232.795093    496.498843
PG26   2782.535990 -25930.555001  -3954.680453    -54.576756
PG27  -7283.568561 -13975.262602 -21734.170334    -32.840541
PG28   1427.794845 -18020.073689  19447.603148   -539.247031
PG29  26316.129386  -4046.885025   -453.636764   -545.722109
PG30  -9156.862077  13013.197738 -21088.667329   -235.703204
PG31  -6287.798101 -21689.104600  13437.826673   -217.528453
PG32  12987.210997 -15401.644053  17436.159444   -538.702881
PR01 -21934.182228  10778.971462   7292.304668    111.789205
PR02 -17200.936973  16085.671939  -9840.895940    -38.326682
PR03  -1787.037567  13167.073559 -21736.688647    115.208445
PR04  13690.509687   3005.470592 -21274.797031    273.213528
PR05  22077.772799  -8540.915618  -9453.948262    143.993926
PR07   1347.895808 -12986.356136  21946.327413     99.170669
PR08 -14030.403022  -2781.511441  21194.224952     -6.367028
PR09   5171.092319 -20880.641125  13789.298540    232.999091
PR11  -8933.573123 -17020.837189 -16772.354823     -1.932689
PR12 -10777.412119   3736.760361 -22800.234927     49.790349
PR14   2832.250290  25196.139279   2706.947993     27.615373
PR15   9444.119510  15455.233305  17969.305848     72.028195
PR16  10642.788281  -3609.745555  22902.720445     32.573856
PR17  10708.580967  14866.569151  17778.252824    158.869277
PR18  21365.880365  13431.254136   3535.889388    182.692371
PR19  21880.188157   7071.658831 -11037.022773   -306.086817
PR20   7966.908925  -7311.835358 -23085.765608   -124.751992
PR21  -9385.154070 -14677.386218 -18617.345089   -169.485415
PR22 -21565.026779 -13465.991067  -2135.090910    -56.704669
PR24  -7384.670979   8402.387710  22944.605016    -88.824437
PR26 -12437.565973  -4116.245390  21905.326155   -131.652602
EOF
